{
    "week": 295,
    "satellites": [
        {
            "Name": "COSMOS 2545 (760)",
            "Line1": "1 45358U 20018A   24341.27449044 -.00000024  00000+0  00000+0 0  9999",
            "Line2": "2 45358  64.6692 331.9609 0012028 250.9913 108.8949  2.13102442 36774",
            "SatelliteNumber": "45358",
            "Classification": "U",
            "LaunchYear": "20",
            "LaunchNumber": "018",
            "PieceOfLaunch": "A",
            "EpochYear": "24",
            "EpochDay": 341.27449044,
            "FirstDerivativeMeanMotion": -2.4e-07,
            "SecondDerivativeMeanMotion": "00000+0",
            "BSTAR": "00000+0",
            "SetNumber": "999",
            "Inclination": 64.6692,
            "RAAN": 331.9609,
            "Eccentricity": 0.0012028,
            "ArgumentOfPerigee": 250.9913,
            "MeanAnomaly": 108.8949,
            "MeanMotion": 2.13102442,
            "RevolutionNumber": "3677"
        },
        {
            "Name": "COSMOS 2547 (705K)",
            "Line1": "1 46805U 20075A   24340.99174374  .00000065  00000+0  00000+0 0  9993",
            "Line2": "2 46805  64.5956 211.1204 0006058 233.7758 126.2582  2.13102795 32017",
            "SatelliteNumber": "46805",
            "Classification": "U",
            "LaunchYear": "20",
            "LaunchNumber": "075",
            "PieceOfLaunch": "A",
            "EpochYear": "24",
            "EpochDay": 340.99174374,
            "FirstDerivativeMeanMotion": 6.5e-07,
            "SecondDerivativeMeanMotion": "00000+0",
            "BSTAR": "00000+0",
            "SetNumber": "999",
            "Inclination": 64.5956,
            "RAAN": 211.1204,
            "Eccentricity": 0.0006058,
            "ArgumentOfPerigee": 233.7758,
            "MeanAnomaly": 126.2582,
            "MeanMotion": 2.13102795,
            "RevolutionNumber": "3201"
        },
        {
            "Name": "COSMOS 2557 (706K)",
            "Line1": "1 52984U 22075A   24341.15775487 -.00000025  00000+0  00000+0 0  9998",
            "Line2": "2 52984  64.6005 334.0791 0014125 278.1786  81.6798  2.13101896 18829",
            "SatelliteNumber": "52984",
            "Classification": "U",
            "LaunchYear": "22",
            "LaunchNumber": "075",
            "PieceOfLaunch": "A",
            "EpochYear": "24",
            "EpochDay": 341.15775487,
            "FirstDerivativeMeanMotion": -2.5e-07,
            "SecondDerivativeMeanMotion": "00000+0",
            "BSTAR": "00000+0",
            "SetNumber": "999",
            "Inclination": 64.6005,
            "RAAN": 334.0791,
            "Eccentricity": 0.0014125,
            "ArgumentOfPerigee": 278.1786,
            "MeanAnomaly": 81.6798,
            "MeanMotion": 2.13101896,
            "RevolutionNumber": "1882"
        },
        {
            "Name": "COSMOS 2559 (707K)",
            "Line1": "1 54031U 22130A   24340.63193887 -.00000026  00000+0  00000+0 0  9996",
            "Line2": "2 54031  64.5728 334.2092 0008089 234.4517 125.4916  2.13101249 16784",
            "SatelliteNumber": "54031",
            "Classification": "U",
            "LaunchYear": "22",
            "LaunchNumber": "130",
            "PieceOfLaunch": "A",
            "EpochYear": "24",
            "EpochDay": 340.63193887,
            "FirstDerivativeMeanMotion": -2.6e-07,
            "SecondDerivativeMeanMotion": "00000+0",
            "BSTAR": "00000+0",
            "SetNumber": "999",
            "Inclination": 64.5728,
            "RAAN": 334.2092,
            "Eccentricity": 0.0008089,
            "ArgumentOfPerigee": 234.4517,
            "MeanAnomaly": 125.4916,
            "MeanMotion": 2.13101249,
            "RevolutionNumber": "1678"
        },
        {
            "Name": "COSMOS 2564 (761)",
            "Line1": "1 54377U 22161A   24341.29137412  .00000064  00000+0  00000+0 0  9999",
            "Line2": "2 54377  64.7371 211.2462 0008154 208.8726 151.1710  2.13102028 15747",
            "SatelliteNumber": "54377",
            "Classification": "U",
            "LaunchYear": "22",
            "LaunchNumber": "161",
            "PieceOfLaunch": "A",
            "EpochYear": "24",
            "EpochDay": 341.29137412,
            "FirstDerivativeMeanMotion": 6.4e-07,
            "SecondDerivativeMeanMotion": "00000+0",
            "BSTAR": "00000+0",
            "SetNumber": "999",
            "Inclination": 64.7371,
            "RAAN": 211.2462,
            "Eccentricity": 0.0008154,
            "ArgumentOfPerigee": 208.8726,
            "MeanAnomaly": 151.171,
            "MeanMotion": 2.13102028,
            "RevolutionNumber": "1574"
        },
        {
            "Name": "COSMOS 2569 (703K)",
            "Line1": "1 57517U 23114A   24341.30726674  .00000029  00000+0  00000+0 0  9994",
            "Line2": "2 57517  64.9981  91.4810 0009834 289.1760  70.7218  2.13104040 10375",
            "SatelliteNumber": "57517",
            "Classification": "U",
            "LaunchYear": "23",
            "LaunchNumber": "114",
            "PieceOfLaunch": "A",
            "EpochYear": "24",
            "EpochDay": 341.30726674,
            "FirstDerivativeMeanMotion": 2.9e-07,
            "SecondDerivativeMeanMotion": "00000+0",
            "BSTAR": "00000+0",
            "SetNumber": "999",
            "Inclination": 64.9981,
            "RAAN": 91.481,
            "Eccentricity": 0.0009834,
            "ArgumentOfPerigee": 289.176,
            "MeanAnomaly": 70.7218,
            "MeanMotion": 2.1310404,
            "RevolutionNumber": "1037"
        }
    ]
}